{"fetched_at":"2026-07-21T17:53:29.980Z","source":"https://celestrak.org/NORAD/elements/gp.php?NAME=HAWK&FORMAT=JSON","constellation":"hawkeye-360","records":[{"OBJECT_NAME":"HAWK-7B","OBJECT_ID":"2023-054R","EPOCH":"2026-07-21T02:36:31.279968","CLASSIFICATION_TYPE":"U","MEAN_MOTION":15.27672935,"ECCENTRICITY":0.00006578,"INCLINATION":97.2678,"RA_OF_ASC_NODE":86.8591,"ARG_OF_PERICENTER":1.1831,"MEAN_ANOMALY":358.941,"EPHEMERIS_TYPE":0,"NORAD_CAT_ID":56193,"ELEMENT_SET_NO":999,"REV_AT_EPOCH":18220,"BSTAR":0.00014565309,"MEAN_MOTION_DOT":0.00003867,"MEAN_MOTION_DDOT":0},{"OBJECT_NAME":"HAWK-7C","OBJECT_ID":"2023-054Y","EPOCH":"2026-07-21T01:02:00.864384","CLASSIFICATION_TYPE":"U","MEAN_MOTION":15.27671668,"ECCENTRICITY":0.00003639,"INCLINATION":97.2657,"RA_OF_ASC_NODE":87.5533,"ARG_OF_PERICENTER":305.0982,"MEAN_ANOMALY":55.0223,"EPHEMERIS_TYPE":0,"NORAD_CAT_ID":56200,"ELEMENT_SET_NO":999,"REV_AT_EPOCH":18219,"BSTAR":0.0001486204,"MEAN_MOTION_DOT":0.00003947,"MEAN_MOTION_DDOT":0},{"OBJECT_NAME":"HAWK-8A","OBJECT_ID":"2024-066B","EPOCH":"2026-07-21T03:53:00.109248","CLASSIFICATION_TYPE":"U","MEAN_MOTION":14.99293154,"ECCENTRICITY":0.00033973,"INCLINATION":45.5992,"RA_OF_ASC_NODE":100.9626,"ARG_OF_PERICENTER":244.2384,"MEAN_ANOMALY":115.8147,"EPHEMERIS_TYPE":0,"NORAD_CAT_ID":59443,"ELEMENT_SET_NO":999,"REV_AT_EPOCH":12493,"BSTAR":0.000068029289,"MEAN_MOTION_DOT":0.00000612,"MEAN_MOTION_DDOT":0},{"OBJECT_NAME":"HAWK-8B","OBJECT_ID":"2024-066D","EPOCH":"2026-07-21T02:17:44.431296","CLASSIFICATION_TYPE":"U","MEAN_MOTION":14.99295057,"ECCENTRICITY":0.00021917,"INCLINATION":45.6109,"RA_OF_ASC_NODE":103.2965,"ARG_OF_PERICENTER":228.1842,"MEAN_ANOMALY":131.8852,"EPHEMERIS_TYPE":0,"NORAD_CAT_ID":59445,"ELEMENT_SET_NO":999,"REV_AT_EPOCH":12491,"BSTAR":0.000058743997,"MEAN_MOTION_DOT":0.00000497,"MEAN_MOTION_DDOT":0},{"OBJECT_NAME":"HAWK-9A","OBJECT_ID":"2024-066E","EPOCH":"2026-07-21T02:51:00.572832","CLASSIFICATION_TYPE":"U","MEAN_MOTION":14.99227119,"ECCENTRICITY":0.00032274,"INCLINATION":45.6101,"RA_OF_ASC_NODE":101.8398,"ARG_OF_PERICENTER":230.8094,"MEAN_ANOMALY":129.2501,"EPHEMERIS_TYPE":0,"NORAD_CAT_ID":59446,"ELEMENT_SET_NO":999,"REV_AT_EPOCH":12492,"BSTAR":0.000092728861,"MEAN_MOTION_DOT":0.00000916,"MEAN_MOTION_DDOT":0},{"OBJECT_NAME":"HAWK-9C","OBJECT_ID":"2024-066G","EPOCH":"2026-07-20T23:39:29.285568","CLASSIFICATION_TYPE":"U","MEAN_MOTION":14.99225219,"ECCENTRICITY":0.0003127,"INCLINATION":45.6072,"RA_OF_ASC_NODE":101.6247,"ARG_OF_PERICENTER":216.5324,"MEAN_ANOMALY":143.5345,"EPHEMERIS_TYPE":0,"NORAD_CAT_ID":59448,"ELEMENT_SET_NO":999,"REV_AT_EPOCH":12490,"BSTAR":0.000086343377,"MEAN_MOTION_DOT":0.00000837,"MEAN_MOTION_DDOT":0},{"OBJECT_NAME":"HAWK-8C","OBJECT_ID":"2024-066H","EPOCH":"2026-07-21T02:16:56.876736","CLASSIFICATION_TYPE":"U","MEAN_MOTION":14.9930015,"ECCENTRICITY":0.00030746,"INCLINATION":45.6079,"RA_OF_ASC_NODE":102.3111,"ARG_OF_PERICENTER":251.4557,"MEAN_ANOMALY":108.5991,"EPHEMERIS_TYPE":0,"NORAD_CAT_ID":59449,"ELEMENT_SET_NO":999,"REV_AT_EPOCH":12491,"BSTAR":0.000082122418,"MEAN_MOTION_DOT":0.00000786,"MEAN_MOTION_DDOT":0},{"OBJECT_NAME":"HAWK-9B","OBJECT_ID":"2024-066J","EPOCH":"2026-07-21T02:51:28.098144","CLASSIFICATION_TYPE":"U","MEAN_MOTION":14.99222997,"ECCENTRICITY":0.00034236,"INCLINATION":45.6126,"RA_OF_ASC_NODE":102.7757,"ARG_OF_PERICENTER":213.3162,"MEAN_ANOMALY":146.7504,"EPHEMERIS_TYPE":0,"NORAD_CAT_ID":59450,"ELEMENT_SET_NO":999,"REV_AT_EPOCH":12492,"BSTAR":0.0001011039,"MEAN_MOTION_DOT":0.00001019,"MEAN_MOTION_DDOT":0},{"OBJECT_NAME":"HAWK-10A","OBJECT_ID":"2024-149CA","EPOCH":"2026-07-21T06:27:11.955168","CLASSIFICATION_TYPE":"U","MEAN_MOTION":14.96598898,"ECCENTRICITY":0.00025217,"INCLINATION":97.6876,"RA_OF_ASC_NODE":277.5943,"ARG_OF_PERICENTER":337.827,"MEAN_ANOMALY":22.2842,"EPHEMERIS_TYPE":0,"NORAD_CAT_ID":60540,"ELEMENT_SET_NO":999,"REV_AT_EPOCH":10508,"BSTAR":0.000075880488,"MEAN_MOTION_DOT":0.00000807,"MEAN_MOTION_DDOT":0},{"OBJECT_NAME":"HAWK-10B","OBJECT_ID":"2024-149CF","EPOCH":"2026-07-21T06:27:00.420768","CLASSIFICATION_TYPE":"U","MEAN_MOTION":14.96598196,"ECCENTRICITY":0.00047441,"INCLINATION":97.6796,"RA_OF_ASC_NODE":276.9147,"ARG_OF_PERICENTER":352.8643,"MEAN_ANOMALY":7.251,"EPHEMERIS_TYPE":0,"NORAD_CAT_ID":60545,"ELEMENT_SET_NO":999,"REV_AT_EPOCH":10508,"BSTAR":0.000080918724,"MEAN_MOTION_DOT":0.00000864,"MEAN_MOTION_DDOT":0},{"OBJECT_NAME":"HAWK-10C","OBJECT_ID":"2024-149DM","EPOCH":"2026-07-21T06:27:30.222720","CLASSIFICATION_TYPE":"U","MEAN_MOTION":14.9659749,"ECCENTRICITY":0.00020881,"INCLINATION":97.6715,"RA_OF_ASC_NODE":276.219,"ARG_OF_PERICENTER":320.6563,"MEAN_ANOMALY":39.4507,"EPHEMERIS_TYPE":0,"NORAD_CAT_ID":60575,"ELEMENT_SET_NO":999,"REV_AT_EPOCH":10508,"BSTAR":0.000087814628,"MEAN_MOTION_DOT":0.00000943,"MEAN_MOTION_DDOT":0},{"OBJECT_NAME":"HAWK-11B","OBJECT_ID":"2024-247C","EPOCH":"2026-07-21T02:37:10.676640","CLASSIFICATION_TYPE":"U","MEAN_MOTION":15.30721366,"ECCENTRICITY":0.0002335,"INCLINATION":45.0159,"RA_OF_ASC_NODE":103.7503,"ARG_OF_PERICENTER":66.0747,"MEAN_ANOMALY":294.0382,"EPHEMERIS_TYPE":0,"NORAD_CAT_ID":62379,"ELEMENT_SET_NO":999,"REV_AT_EPOCH":8820,"BSTAR":0.0001688009,"MEAN_MOTION_DOT":0.00004805,"MEAN_MOTION_DDOT":0},{"OBJECT_NAME":"HAWK-11C","OBJECT_ID":"2024-247E","EPOCH":"2026-07-21T02:36:32.665824","CLASSIFICATION_TYPE":"U","MEAN_MOTION":15.30717468,"ECCENTRICITY":0.00031569,"INCLINATION":45.0045,"RA_OF_ASC_NODE":103.0772,"ARG_OF_PERICENTER":48.4389,"MEAN_ANOMALY":311.6766,"EPHEMERIS_TYPE":0,"NORAD_CAT_ID":62381,"ELEMENT_SET_NO":999,"REV_AT_EPOCH":8820,"BSTAR":0.00016974156,"MEAN_MOTION_DOT":0.00004833,"MEAN_MOTION_DDOT":0},{"OBJECT_NAME":"HAWK-11A","OBJECT_ID":"2024-247F","EPOCH":"2026-07-20T23:28:44.146272","CLASSIFICATION_TYPE":"U","MEAN_MOTION":15.30713414,"ECCENTRICITY":0.00026297,"INCLINATION":44.9941,"RA_OF_ASC_NODE":103.1155,"ARG_OF_PERICENTER":46.806,"MEAN_ANOMALY":313.3043,"EPHEMERIS_TYPE":0,"NORAD_CAT_ID":62382,"ELEMENT_SET_NO":999,"REV_AT_EPOCH":8818,"BSTAR":0.00016984253,"MEAN_MOTION_DOT":0.00004836,"MEAN_MOTION_DDOT":0},{"OBJECT_NAME":"HAWK-12C","OBJECT_ID":"2025-138A","EPOCH":"2026-07-20T23:35:24.774432","CLASSIFICATION_TYPE":"U","MEAN_MOTION":15.18433662,"ECCENTRICITY":0.00147943,"INCLINATION":97.4358,"RA_OF_ASC_NODE":203.8587,"ARG_OF_PERICENTER":32.5435,"MEAN_ANOMALY":327.6708,"EPHEMERIS_TYPE":0,"NORAD_CAT_ID":64621,"ELEMENT_SET_NO":999,"REV_AT_EPOCH":5899,"BSTAR":0.00013544377,"MEAN_MOTION_DOT":0.00002727,"MEAN_MOTION_DDOT":0},{"OBJECT_NAME":"HAWK-12B","OBJECT_ID":"2025-138B","EPOCH":"2026-07-21T05:55:14.721888","CLASSIFICATION_TYPE":"U","MEAN_MOTION":15.18434812,"ECCENTRICITY":0.00136154,"INCLINATION":97.4483,"RA_OF_ASC_NODE":204.8213,"ARG_OF_PERICENTER":27.7802,"MEAN_ANOMALY":332.4157,"EPHEMERIS_TYPE":0,"NORAD_CAT_ID":64622,"ELEMENT_SET_NO":999,"REV_AT_EPOCH":5903,"BSTAR":0.00014639005,"MEAN_MOTION_DOT":0.00002952,"MEAN_MOTION_DDOT":0}]}
