HAWK-7B                 
1 56193U 23054R   26202.10869537  .00003867  00000+0  14565-3 0  9996
2 56193  97.2678  86.8591 0000657   1.1831 358.9410 15.27672935182204
HAWK-7C                 
1 56200U 23054Y   26202.04306556  .00003947  00000+0  14862-3 0  9994
2 56200  97.2657  87.5533 0000363 305.0982  55.0223 15.27671668182198
HAWK-8A                 
1 59443U 24066B   26202.16180682  .00000612  00000+0  68029-4 0  9994
2 59443  45.5992 100.9626 0003397 244.2384 115.8147 14.99293154124937
HAWK-8B                 
1 59445U 24066D   26202.09565314  .00000497  00000+0  58744-4 0  9991
2 59445  45.6109 103.2965 0002191 228.1842 131.8852 14.99295057124916
HAWK-9A                 
1 59446U 24066E   26202.11875663  .00000916  00000+0  92729-4 0  9993
2 59446  45.6101 101.8398 0003227 230.8094 129.2501 14.99227119124920
HAWK-9C                 
1 59448U 24066G   26201.98575562  .00000837  00000+0  86343-4 0  9991
2 59448  45.6072 101.6247 0003127 216.5324 143.5345 14.99225219124908
HAWK-8C                 
1 59449U 24066H   26202.09510274  .00000786  00000+0  82122-4 0  9998
2 59449  45.6079 102.3111 0003074 251.4557 108.5991 14.99300150124918
HAWK-9B                 
1 59450U 24066J   26202.11907521  .00001019  00000+0  10110-3 0  9995
2 59450  45.6126 102.7757 0003423 213.3162 146.7504 14.99222997124927
HAWK-10A                
1 60540U 24149CA  26202.26888837  .00000807  00000+0  75880-4 0  9993
2 60540  97.6876 277.5943 0002521 337.8270  22.2842 14.96598898105088
HAWK-10B                
1 60545U 24149CF  26202.26875487  .00000864  00000+0  80919-4 0  9997
2 60545  97.6796 276.9147 0004744 352.8643   7.2510 14.96598196105089
HAWK-10C                
1 60575U 24149DM  26202.26909980  .00000943  00000+0  87815-4 0  9996
2 60575  97.6715 276.2190 0002088 320.6563  39.4507 14.96597490105086
HAWK-11B                
1 62379U 24247C   26202.10915135  .00004805  00000+0  16880-3 0  9995
2 62379  45.0159 103.7503 0002335  66.0747 294.0382 15.30721366 88205
HAWK-11C                
1 62381U 24247E   26202.10871141  .00004833  00000+0  16974-3 0  9991
2 62381  45.0045 103.0772 0003156  48.4389 311.6766 15.30717468 88201
HAWK-11A                
1 62382U 24247F   26201.97828873  .00004836  00000+0  16984-3 0  9994
2 62382  44.9941 103.1155 0002629  46.8060 313.3043 15.30713414 88184
HAWK-12C                
1 64621U 25138A   26201.98292563  .00002727  00000+0  13544-3 0  9990
2 64621  97.4358 203.8587 0014794  32.5435 327.6708 15.18433662 58990
HAWK-12B                
1 64622U 25138B   26202.24669817  .00002952  00000+0  14639-3 0  9997
2 64622  97.4483 204.8213 0013615  27.7802 332.4157 15.18434812 59038
